{
    "links": {
        "self": "http://www.neowsapp.com/rest/v1/neo/3689178?api_key=iIulBulltgU6a56xZRHN4H3l9WmuAYTsLGpBGhQ2"
    },
    "id": "3689178",
    "neo_reference_id": "3689178",
    "name": "(2014 RU30)",
    "designation": "2014 RU30",
    "nasa_jpl_url": "http://ssd.jpl.nasa.gov/sbdb.cgi?sstr=3689178",
    "absolute_magnitude_h": 21.1,
    "estimated_diameter": {
        "kilometers": {
            "estimated_diameter_min": 0.160160338,
            "estimated_diameter_max": 0.358129403
        },
        "meters": {
            "estimated_diameter_min": 160.1603379786,
            "estimated_diameter_max": 358.1294030194
        },
        "miles": {
            "estimated_diameter_min": 0.0995189894,
            "estimated_diameter_max": 0.2225312253
        },
        "feet": {
            "estimated_diameter_min": 525.4604432536,
            "estimated_diameter_max": 1174.9652706022
        }
    },
    "is_potentially_hazardous_asteroid": false,
    "close_approach_data": [
        {
            "close_approach_date": "2014-08-01",
            "close_approach_date_full": "2014-Aug-01 10:34",
            "epoch_date_close_approach": 1406889240000,
            "relative_velocity": {
                "kilometers_per_second": "14.4095731861",
                "kilometers_per_hour": "51874.4634698768",
                "miles_per_hour": "32232.7742599354"
            },
            "miss_distance": {
                "astronomical": "0.2047609228",
                "lunar": "79.6519989692",
                "kilometers": "30631797.910114436",
                "miles": "19033716.6161777768"
            },
            "orbiting_body": "Earth"
        },
        {
            "close_approach_date": "2024-08-04",
            "close_approach_date_full": "2024-Aug-04 04:26",
            "epoch_date_close_approach": 1722745560000,
            "relative_velocity": {
                "kilometers_per_second": "16.1388093665",
                "kilometers_per_hour": "58099.7137194889",
                "miles_per_hour": "36100.9026719791"
            },
            "miss_distance": {
                "astronomical": "0.2470873293",
                "lunar": "96.1169710977",
                "kilometers": "36963738.167268591",
                "miles": "22968201.8474689158"
            },
            "orbiting_body": "Earth"
        }
    ],
    "orbital_data": {
        "orbit_id": "11",
        "orbit_determination_date": "2017-04-06 08:38:41",
        "first_observation_date": "2014-09-14",
        "last_observation_date": "2014-09-29",
        "data_arc_in_days": 15,
        "observations_used": 35,
        "orbit_uncertainty": "7",
        "minimum_orbit_intersection": ".203092",
        "jupiter_tisserand_invariant": "3.374",
        "epoch_osculation": "2459000.5",
        "eccentricity": ".5030226580382281",
        "semi_major_axis": "2.234319882158259",
        "inclination": "22.65647023250281",
        "ascending_node_longitude": "322.1149608990398",
        "orbital_period": "1219.87814884971",
        "perihelion_distance": "1.110406356127351",
        "perihelion_argument": "309.1304376078249",
        "aphelion_distance": "3.358233408189167",
        "perihelion_time": "2459274.959411158608",
        "mean_anomaly": "279.003887306066",
        "mean_motion": ".2951114423514051",
        "equinox": "J2000",
        "orbit_class": {
            "orbit_class_type": "AMO",
            "orbit_class_description": "Near-Earth asteroid orbits similar to that of 1221 Amor",
            "orbit_class_range": "1.017 AU < q (perihelion) < 1.3 AU"
        }
    },
    "is_sentry_object": false
}